{"type": "FeatureCollection", "features": [ {"type": "Feature", "properties": {"norad_id": 54234, "name": "NOAA 21 (JPSS-2)", "group": "weather", "lat": -65.26801121766242, "lon": -48.66325640631768, "alt_km": 834.0683295166182, "timestamp": "2025-12-21T14:40:47.553374+00:00", "meta": {"OBJECT_NAME": "NOAA 21 (JPSS-2)", "OBJECT_ID": "2022-150A", "EPOCH": "2025-12-21T03:09:08.348832", "MEAN_MOTION": 14.19526263, "ECCENTRICITY": 0.00018466, "INCLINATION": 98.7474, "RA_OF_ASC_NODE": 291.3352, "ARG_OF_PERICENTER": 21.2149, "MEAN_ANOMALY": 338.9103, "EPHEMERIS_TYPE": 0, "CLASSIFICATION_TYPE": "U", "NORAD_CAT_ID": 54234, "ELEMENT_SET_NO": 999, "REV_AT_EPOCH": 16128, "BSTAR": 4.2536943e-05, "MEAN_MOTION_DOT": 4.6e-07, "MEAN_MOTION_DDOT": 0}, "tle": {"line1": "1 54234U 22150A   25355.13134663  .00000046  00000+0  42537-4 0  9999", "line2": "2 54234  98.7474 291.3352 0001846  21.2149 338.9103 14.19526263161286"}}, "geometry": {"type": "Point", "coordinates": [-48.66325640631768, -65.26801121766242]}}, {"type": "Feature", "properties": {"norad_id": 54743, "name": "METEOSAT-12 (MTG-I1)", "group": "weather", "lat": -0.6915880678479311, "lon": -49.6793590062475, "alt_km": 35782.04997608815, "timestamp": "2025-12-21T14:40:47.553387+00:00", "meta": {"OBJECT_NAME": "METEOSAT-12 (MTG-I1)", "OBJECT_ID": "2022-170C", "EPOCH": "2025-12-21T03:32:38.808096", "MEAN_MOTION": 1.00270641, "ECCENTRICITY": 0.00014949, "INCLINATION": 0.6952, "RA_OF_ASC_NODE": 24.9849, "ARG_OF_PERICENTER": 239.5818, "MEAN_ANOMALY": 238.2565, "EPHEMERIS_TYPE": 0, "CLASSIFICATION_TYPE": "U", "NORAD_CAT_ID": 54743, "ELEMENT_SET_NO": 999, "REV_AT_EPOCH": 1119, "BSTAR": 0, "MEAN_MOTION_DOT": 1.5e-07, "MEAN_MOTION_DDOT": 0}, "tle": {"line1": "1 54743U 22170C   25355.14767139  .00000015  00000+0  00000+0 0  9997", "line2": "2 54743   0.6952  24.9849 0001494 239.5818 238.2565  1.00270641 11191"}}, "geometry": {"type": "Point", "coordinates": [-49.6793590062475, -0.6915880678479311]}}, {"type": "Feature", "properties": {"norad_id": 55973, "name": "TIANMU-1 03", "group": "weather", "lat": 45.376538114056096, "lon": -13.805457753288486, "alt_km": 439.24443561288535, "timestamp": "2025-12-21T14:40:47.553400+00:00", "meta": {"OBJECT_NAME": "TIANMU-1 03", "OBJECT_ID": "2023-039A", "EPOCH": "2025-12-21T06:18:32.852736", "MEAN_MOTION": 15.41153506, "ECCENTRICITY": 0.00039896, "INCLINATION": 97.5106, "RA_OF_ASC_NODE": 158.1537, "ARG_OF_PERICENTER": 36.6827, "MEAN_ANOMALY": 323.4692, "EPHEMERIS_TYPE": 0, "CLASSIFICATION_TYPE": "U", "NORAD_CAT_ID": 55973, "ELEMENT_SET_NO": 999, "REV_AT_EPOCH": 15337, "BSTAR": 0.00030059364, "MEAN_MOTION_DOT": 0.00012378, "MEAN_MOTION_DDOT": 0}, "tle": {"line1": "1 55973U 23039A   25355.26288024  .00012378  00000+0  30059-3 0  9998", "line2": "2 55973  97.5106 158.1537 0003989  36.6827 323.4692 15.41153506153379"}}, "geometry": {"type": "Point", "coordinates": [-13.805457753288486, 45.376538114056096]}}, {"type": "Feature", "properties": {"norad_id": 55974, "name": "TIANMU-1 04", "group": "weather", "lat": -76.51376601183732, "lon": -55.641631144238225, "alt_km": 451.05973772221205, "timestamp": "2025-12-21T14:40:47.553411+00:00", "meta": {"OBJECT_NAME": "TIANMU-1 04", "OBJECT_ID": "2023-039B", "EPOCH": "2025-12-21T05:46:15.415680", "MEAN_MOTION": 15.41494271, "ECCENTRICITY": 0.00046135, "INCLINATION": 97.5038, "RA_OF_ASC_NODE": 157.3182, "ARG_OF_PERICENTER": 30.5573, "MEAN_ANOMALY": 329.5941, "EPHEMERIS_TYPE": 0, "CLASSIFICATION_TYPE": "U", "NORAD_CAT_ID": 55974, "ELEMENT_SET_NO": 999, "REV_AT_EPOCH": 15337, "BSTAR": 0.00029364909, "MEAN_MOTION_DOT": 0.00012228, "MEAN_MOTION_DDOT": 0}, "tle": {"line1": "1 55974U 23039B   25355.24045620  .00012228  00000+0  29365-3 0  9992", "line2": "2 55974  97.5038 157.3182 0004613  30.5573 329.5941 15.41494271153378"}}, "geometry": {"type": "Point", "coordinates": [-55.641631144238225, -76.51376601183732]}}, {"type": "Feature", "properties": {"norad_id": 55975, "name": "TIANMU-1 05", "group": "weather", "lat": -78.71381094777617, "lon": -160.43831294178918, "alt_km": 452.14635634194747, "timestamp": "2025-12-21T14:40:47.553421+00:00", "meta": {"OBJECT_NAME": "TIANMU-1 05", "OBJECT_ID": "2023-039C", "EPOCH": "2025-12-21T05:41:00.309696", "MEAN_MOTION": 15.41110323, "ECCENTRICITY": 0.00040874, "INCLINATION": 97.5085, "RA_OF_ASC_NODE": 157.8072, "ARG_OF_PERICENTER": 55.2423, "MEAN_ANOMALY": 304.9207, "EPHEMERIS_TYPE": 0, "CLASSIFICATION_TYPE": "U", "NORAD_CAT_ID": 55975, "ELEMENT_SET_NO": 999, "REV_AT_EPOCH": 15335, "BSTAR": 0.000292467, "MEAN_MOTION_DOT": 0.00012023, "MEAN_MOTION_DDOT": 0}, "tle": {"line1": "1 55975U 23039C   25355.23680914  .00012023  00000+0  29247-3 0  9995", "line2": "2 55975  97.5085 157.8072 0004087  55.2423 304.9207 15.41110323153350"}}, "geometry": {"type": "Point", "coordinates": [-160.43831294178918, -78.71381094777617]}}, {"type": "Feature", "properties": {"norad_id": 55976, "name": "TIANMU-1 06", "group": "weather", "lat": -67.19574622541703, "lon": -39.62066890649957, "alt_km": 451.6006759132697, "timestamp": "2025-12-21T14:40:47.553431+00:00", "meta": {"OBJECT_NAME": "TIANMU-1 06", "OBJECT_ID": "2023-039D", "EPOCH": "2025-12-21T05:48:58.717728", "MEAN_MOTION": 15.4154414, "ECCENTRICITY": 0.00043699, "INCLINATION": 97.5096, "RA_OF_ASC_NODE": 158.285, "ARG_OF_PERICENTER": 49.4467, "MEAN_ANOMALY": 310.716, "EPHEMERIS_TYPE": 0, "CLASSIFICATION_TYPE": "U", "NORAD_CAT_ID": 55976, "ELEMENT_SET_NO": 999, "REV_AT_EPOCH": 15337, "BSTAR": 0.00025906138, "MEAN_MOTION_DOT": 0.00010793, "MEAN_MOTION_DDOT": 0}, "tle": {"line1": "1 55976U 23039D   25355.24234627  .00010793  00000+0  25906-3 0  9993", "line2": "2 55976  97.5096 158.2850 0004369  49.4467 310.7160 15.41544140153371"}}, "geometry": {"type": "Point", "coordinates": [-39.62066890649957, -67.19574622541703]}}, {"type": "Feature", "properties": {"norad_id": 56232, "name": "FENGYUN 3G", "group": "weather", "lat": 47.7918237502319, "lon": -110.51579340268637, "alt_km": 400.39503834517745, "timestamp": "2025-12-21T14:40:47.553442+00:00", "meta": {"OBJECT_NAME": "FENGYUN 3G", "OBJECT_ID": "2023-055A", "EPOCH": "2025-12-21T00:28:08.179104", "MEAN_MOTION": 15.54101583, "ECCENTRICITY": 0.00092866, "INCLINATION": 49.9915, "RA_OF_ASC_NODE": 184.7126, "ARG_OF_PERICENTER": 185.9215, "MEAN_ANOMALY": 174.1645, "EPHEMERIS_TYPE": 0, "CLASSIFICATION_TYPE": "U", "NORAD_CAT_ID": 56232, "ELEMENT_SET_NO": 999, "REV_AT_EPOCH": 15231, "BSTAR": 0.00036063279, "MEAN_MOTION_DOT": 0.00023517, "MEAN_MOTION_DDOT": 0}, "tle": {"line1": "1 56232U 23055A   25355.01953911  .00023517  00000+0  36063-3 0  9990", "line2": "2 56232  49.9915 184.7126 0009286 185.9215 174.1645 15.54101583152315"}}, "geometry": {"type": "Point", "coordinates": [-110.51579340268637, 47.7918237502319]}}, {"type": "Feature", "properties": {"norad_id": 57166, "name": "METEOR-M2 3", "group": "weather", "lat": -16.564121067860263, "lon": 51.5865178657347, "alt_km": 814.101618211791, "timestamp": "2025-12-21T14:40:47.553455+00:00", "meta": {"OBJECT_NAME": "METEOR-M2 3", "OBJECT_ID": "2023-091A", "EPOCH": "2025-12-21T06:19:36.321312", "MEAN_MOTION": 14.24027034, "ECCENTRICITY": 0.00034372, "INCLINATION": 98.6365, "RA_OF_ASC_NODE": 48.6537, "ARG_OF_PERICENTER": 343.0426, "MEAN_ANOMALY": 17.0638, "EPHEMERIS_TYPE": 0, "CLASSIFICATION_TYPE": "U", "NORAD_CAT_ID": 57166, "ELEMENT_SET_NO": 999, "REV_AT_EPOCH": 12919, "BSTAR": 2.0131044e-05, "MEAN_MOTION_DOT": 3e-08, "MEAN_MOTION_DDOT": 0}, "tle": {"line1": "1 57166U 23091A   25355.26361483  .00000003  00000+0  20131-4 0  9996", "line2": "2 57166  98.6365  48.6537 0003437 343.0426  17.0638 14.24027034129190"}}, "geometry": {"type": "Point", "coordinates": [51.5865178657347, -16.564121067860263]}}, {"type": "Feature", "properties": {"norad_id": 57399, "name": "TIANMU-1 07", "group": "weather", "lat": -68.58982736994915, "lon": -153.77976731425184, "alt_km": 492.0714490955852, "timestamp": "2025-12-21T14:40:47.553465+00:00", "meta": {"OBJECT_NAME": "TIANMU-1 07", "OBJECT_ID": "2023-101A", "EPOCH": "2025-12-21T05:43:57.948960", "MEAN_MOTION": 15.28182883, "ECCENTRICITY": 0.00052645, "INCLINATION": 97.2864, "RA_OF_ASC_NODE": 44.9014, "ARG_OF_PERICENTER": 60.0349, "MEAN_ANOMALY": 300.1413, "EPHEMERIS_TYPE": 0, "CLASSIFICATION_TYPE": "U", "NORAD_CAT_ID": 57399, "ELEMENT_SET_NO": 999, "REV_AT_EPOCH": 13445, "BSTAR": 0.00020825452, "MEAN_MOTION_DOT": 5.649e-05, "MEAN_MOTION_DDOT": 0}, "tle": {"line1": "1 57399U 23101A   25355.23886515  .00005649  00000+0  20825-3 0  9991", "line2": "2 57399  97.2864  44.9014 0005264  60.0349 300.1413 15.28182883134457"}}, "geometry": {"type": "Point", "coordinates": [-153.77976731425184, -68.58982736994915]}}, {"type": "Feature", "properties": {"norad_id": 57400, "name": "TIANMU-1 08", "group": "weather", "lat": 69.65104828057666, "lon": 24.884636598242327, "alt_km": 469.74081595466396, "timestamp": "2025-12-21T14:40:47.553475+00:00", "meta": {"OBJECT_NAME": "TIANMU-1 08", "OBJECT_ID": "2023-101B", "EPOCH": "2025-12-21T06:30:47.925792", "MEAN_MOTION": 15.28165817, "ECCENTRICITY": 0.00071833, "INCLINATION": 97.2852, "RA_OF_ASC_NODE": 44.7297, "ARG_OF_PERICENTER": 59.9162, "MEAN_ANOMALY": 300.2789, "EPHEMERIS_TYPE": 0, "CLASSIFICATION_TYPE": "U", "NORAD_CAT_ID": 57400, "ELEMENT_SET_NO": 999, "REV_AT_EPOCH": 13445, "BSTAR": 0.00020524572, "MEAN_MOTION_DOT": 5.565e-05, "MEAN_MOTION_DDOT": 0}, "tle": {"line1": "1 57400U 23101B   25355.27138803  .00005565  00000+0  20525-3 0  9992", "line2": "2 57400  97.2852  44.7297 0007183  59.9162 300.2789 15.28165817134455"}}, "geometry": {"type": "Point", "coordinates": [24.884636598242327, 69.65104828057666]}}]}